{
  "type": "FeatureCollection",
  "features": [
    {
      "type": "Feature",
      "properties": {
        "norad_id": 40069,
        "name": "METEOR-M 2",
        "group": "weather",
        "lat": -59.62379680006491,
        "lon": -11.84315147007881,
        "alt_km": 829.6944835450531,
        "timestamp": "2025-12-22T04:03:38.803615+00:00",
        "meta_object_name": "METEOR-M 2",
        "meta_object_id": "2014-037A",
        "meta_epoch": "2025-12-21T21:35:18.536640",
        "meta_mean_motion": 14.21389422,
        "meta_eccentricity": 0.0005463,
        "meta_inclination": 98.4906,
        "meta_ra_of_asc_node": 333.1327,
        "meta_arg_of_pericenter": 180.7154,
        "meta_mean_anomaly": 179.4017,
        "meta_ephemeris_type": 0,
        "meta_classification_type": "U",
        "meta_norad_cat_id": 40069,
        "meta_element_set_no": 999,
        "meta_rev_at_epoch": 59413,
        "meta_bstar": -1.7222e-05,
        "meta_mean_motion_dot": -8e-07,
        "meta_mean_motion_ddot": 0,
        "tle_line1": "1 40069U 14037A   25355.89952010 -.00000080  00000+0 -17222-4 0  9995",
        "tle_line2": "2 40069  98.4906 333.1327 0005463 180.7154 179.4017 14.21389422594130"
      },
      "geometry": {
        "type": "Point",
        "coordinates": [
          -11.84315147007881,
          -59.62379680006491
        ]
      }
    },
    {
      "type": "Feature",
      "properties": {
        "norad_id": 40267,
        "name": "HIMAWARI-8",
        "group": "weather",
        "lat": -0.01823947902327373,
        "lon": -67.4563586219734,
        "alt_km": 35782.6938766836,
        "timestamp": "2025-12-22T04:03:38.803627+00:00",
        "meta_object_name": "HIMAWARI-8",
        "meta_object_id": "2014-060A",
        "meta_epoch": "2025-12-21T17:43:38.586720",
        "meta_mean_motion": 1.002705,
        "meta_eccentricity": 9e-05,
        "meta_inclination": 0.0386,
        "meta_ra_of_asc_node": 132.208,
        "meta_arg_of_pericenter": 164.3833,
        "meta_mean_anomaly": 200.5374,
        "meta_ephemeris_type": 0,
        "meta_classification_type": "U",
        "meta_norad_cat_id": 40267,
        "meta_element_set_no": 999,
        "meta_rev_at_epoch": 4098,
        "meta_bstar": 0,
        "meta_mean_motion_dot": -2.53e-06,
        "meta_mean_motion_ddot": 0,
        "tle_line1": "1 40267U 14060A   25355.73864105 -.00000253  00000+0  00000+0 0  9993",
        "tle_line2": "2 40267   0.0386 132.2080 0000900 164.3833 200.5374  1.00270500 40988"
      },
      "geometry": {
        "type": "Point",
        "coordinates": [
          -67.4563586219734,
          -0.01823947902327373
        ]
      }
    },
    {
      "type": "Feature",
      "properties": {
        "norad_id": 40367,
        "name": "FENGYUN 2G",
        "group": "weather",
        "lat": 0.33214204335590636,
        "lon": -108.89508811061518,
        "alt_km": 35779.20665235049,
        "timestamp": "2025-12-22T04:03:38.803640+00:00",
        "meta_object_name": "FENGYUN 2G",
        "meta_object_id": "2014-090A",
        "meta_epoch": "2025-12-21T20:54:57.485088",
        "meta_mean_motion": 1.0026073,
        "meta_eccentricity": 0.000265,
        "meta_inclination": 5.1899,
        "meta_ra_of_asc_node": 74.9937,
        "meta_arg_of_pericenter": 203.4867,
        "meta_mean_anomaly": 225.1698,
        "meta_ephemeris_type": 0,
        "meta_classification_type": "U",
        "meta_norad_cat_id": 40367,
        "meta_element_set_no": 999,
        "meta_rev_at_epoch": 4022,
        "meta_bstar": 0,
        "meta_mean_motion_dot": -2.79e-06,
        "meta_mean_motion_ddot": 0,
        "tle_line1": "1 40367U 14090A   25355.87149867 -.00000279  00000+0  00000+0 0  9991",
        "tle_line2": "2 40367   5.1899  74.9937 0002650 203.4867 225.1698  1.00260730 40226"
      },
      "geometry": {
        "type": "Point",
        "coordinates": [
          -108.89508811061518,
          0.33214204335590636
        ]
      }
    },
    {
      "type": "Feature",
      "properties": {
        "norad_id": 40732,
        "name": "METEOSAT-11 (MSG-4)",
        "group": "weather",
        "lat": 2.7716688549886506,
        "lon": 161.0688689459881,
        "alt_km": 35783.89043238217,
        "timestamp": "2025-12-22T04:03:38.803652+00:00",
        "meta_object_name": "METEOSAT-11 (MSG-4)",
        "meta_object_id": "2015-034A",
        "meta_epoch": "2025-12-21T18:22:41.415168",
        "meta_mean_motion": 1.00270316,
        "meta_eccentricity": 7.94e-05,
        "meta_inclination": 2.7588,
        "meta_ra_of_asc_node": 71.9774,
        "meta_arg_of_pericenter": 137.3377,
        "meta_mean_anomaly": 166.1308,
        "meta_ephemeris_type": 0,
        "meta_classification_type": "U",
        "meta_norad_cat_id": 40732,
        "meta_element_set_no": 999,
        "meta_rev_at_epoch": 543,
        "meta_bstar": 0,
        "meta_mean_motion_dot": 8.2e-07,
        "meta_mean_motion_ddot": 0,
        "tle_line1": "1 40732U 15034A   25355.76575712  .00000082  00000+0  00000+0 0  9997",
        "tle_line2": "2 40732   2.7588  71.9774 0000794 137.3377 166.1308  1.00270316  5431"
      },
      "geometry": {
        "type": "Point",
        "coordinates": [
          161.0688689459881,
          2.7716688549886506
        ]
      }
    },
    {
      "type": "Feature",
      "properties": {
        "norad_id": 41105,
        "name": "ELEKTRO-L 2",
        "group": "weather",
        "lat": 5.667049988791987,
        "lon": 137.25964571026282,
        "alt_km": 35797.18407297886,
        "timestamp": "2025-12-22T04:03:38.803664+00:00",
        "meta_object_name": "ELEKTRO-L 2",
        "meta_object_id": "2015-074A",
        "meta_epoch": "2025-12-21T09:42:19.444608",
        "meta_mean_motion": 1.00272503,
        "meta_eccentricity": 0.00034923,
        "meta_inclination": 6.2461,
        "meta_ra_of_asc_node": 72.7254,
        "meta_arg_of_pericenter": 209.0939,
        "meta_mean_anomaly": 299.5117,
        "meta_ephemeris_type": 0,
        "meta_classification_type": "U",
        "meta_norad_cat_id": 41105,
        "meta_element_set_no": 999,
        "meta_rev_at_epoch": 3672,
        "meta_bstar": 0,
        "meta_mean_motion_dot": -9.9e-07,
        "meta_mean_motion_ddot": 0,
        "tle_line1": "1 41105U 15074A   25355.40439172 -.00000099  00000+0  00000+0 0  9995",
        "tle_line2": "2 41105   6.2461  72.7254 0003492 209.0939 299.5117  1.00272503 36721"
      },
      "geometry": {
        "type": "Point",
        "coordinates": [
          137.25964571026282,
          5.667049988791987
        ]
      }
    },
    {
      "type": "Feature",
      "properties": {
        "norad_id": 41752,
        "name": "INSAT-3DR",
        "group": "weather",
        "lat": 0.056186742582511814,
        "lon": -134.2462367122844,
        "alt_km": 35744.3792192139,
        "timestamp": "2025-12-22T04:03:38.803676+00:00",
        "meta_object_name": "INSAT-3DR",
        "meta_object_id": "2016-054A",
        "meta_epoch": "2025-12-21T19:45:36.611424",
        "meta_mean_motion": 1.00271543,
        "meta_eccentricity": 0.0014162,
        "meta_inclination": 0.1136,
        "meta_ra_of_asc_node": 86.2658,
        "meta_arg_of_pericenter": 185.4479,
        "meta_mean_anomaly": 189.3149,
        "meta_ephemeris_type": 0,
        "meta_classification_type": "U",
        "meta_norad_cat_id": 41752,
        "meta_element_set_no": 999,
        "meta_rev_at_epoch": 3404,
        "meta_bstar": 0,
        "meta_mean_motion_dot": -5.5e-07,
        "meta_mean_motion_ddot": 0,
        "tle_line1": "1 41752U 16054A   25355.82334041 -.00000055  00000+0  00000+0 0  9999",
        "tle_line2": "2 41752   0.1136  86.2658 0014162 185.4479 189.3149  1.00271543 34048"
      },
      "geometry": {
        "type": "Point",
        "coordinates": [
          -134.2462367122844,
          0.056186742582511814
        ]
      }
    },
    {
      "type": "Feature",
      "properties": {
        "norad_id": 41836,
        "name": "HIMAWARI-9",
        "group": "weather",
        "lat": -0.04172789169700515,
        "lon": -67.36134545440848,
        "alt_km": 35781.28626852774,
        "timestamp": "2025-12-22T04:03:38.803688+00:00",
        "meta_object_name": "HIMAWARI-9",
        "meta_object_id": "2016-064A",
        "meta_epoch": "2025-12-21T17:17:31.727040",
        "meta_mean_motion": 1.00272512,
        "meta_eccentricity": 0.0001422,
        "meta_inclination": 0.0165,
        "meta_ra_of_asc_node": 18.1213,
        "meta_arg_of_pericenter": 313.7612,
        "meta_mean_anomaly": 158.8012,
        "meta_ephemeris_type": 0,
        "meta_classification_type": "U",
        "meta_norad_cat_id": 41836,
        "meta_element_set_no": 999,
        "meta_rev_at_epoch": 3343,
        "meta_bstar": 0,
        "meta_mean_motion_dot": 0,
        "meta_mean_motion_ddot": 0,
        "tle_line1": "1 41836U 16064A   25355.72050610  .00000000  00000+0  00000+0 0  9998",
        "tle_line2": "2 41836   0.0165  18.1213 0001422 313.7612 158.8012  1.00272512 33432"
      },
      "geometry": {
        "type": "Point",
        "coordinates": [
          -67.36134545440848,
          -0.04172789169700515
        ]
      }
    }
  ]
}